STARLINK-4068           
1 52681U 22053AB  26068.47871149 -.00000833  00000+0 -34284-4 0  9997
2 52681  53.2176 145.0683 0001384  86.5681 273.5469 15.08838363211101
LEMUR-2-MARHISYAM       
1 60536U 24149BW  26068.74036894  .00013075  00000+0  82973-3 0  9990
2 60536  97.6912 151.2662 0003578 107.3271 252.8349 15.09015520 85478
